{
  "type": "FeatureCollection",
  "features": [
    {
      "type": "Feature",
      "properties": {
        "norad_id": 22490,
        "name": "SCD 1",
        "group": "resource",
        "lat": 1.8954721422821401,
        "lon": -129.7032535662786,
        "alt_km": 717.3174759403273,
        "timestamp": "2025-12-21T05:44:51.232146+00:00",
        "meta_object_name": "SCD 1",
        "meta_object_id": "1993-009B",
        "meta_epoch": "2025-12-20T20:00:20.609568",
        "meta_mean_motion": 14.46004096,
        "meta_eccentricity": 0.00421217,
        "meta_inclination": 24.9682,
        "meta_ra_of_asc_node": 228.7229,
        "meta_arg_of_pericenter": 50.6528,
        "meta_mean_anomaly": 356.9599,
        "meta_ephemeris_type": 0,
        "meta_classification_type": "U",
        "meta_norad_cat_id": 22490,
        "meta_element_set_no": 999,
        "meta_rev_at_epoch": 73527,
        "meta_bstar": 6.2642075e-05,
        "meta_mean_motion_dot": 4.14e-06,
        "meta_mean_motion_ddot": 0,
        "tle_line1": "1 22490U 93009B   25354.83357187  .00000414  00000+0  62642-4 0  9991",
        "tle_line2": "2 22490  24.9682 228.7229 0042121  50.6528 356.9599 14.46004096735272"
      },
      "geometry": {
        "type": "Point",
        "coordinates": [
          -129.7032535662786,
          1.8954721422821401
        ]
      }
    },
    {
      "type": "Feature",
      "properties": {
        "norad_id": 25397,
        "name": "TECHSAT 1B (GO-32)",
        "group": "resource",
        "lat": 10.438906545213532,
        "lon": 160.31976009617634,
        "alt_km": 812.8097911707973,
        "timestamp": "2025-12-21T05:44:51.232189+00:00",
        "meta_object_name": "TECHSAT 1B (GO-32)",
        "meta_object_id": "1998-043D",
        "meta_epoch": "2025-12-20T12:05:47.212224",
        "meta_mean_motion": 14.24379082,
        "meta_eccentricity": 0.0001814,
        "meta_inclination": 98.9927,
        "meta_ra_of_asc_node": 337.8955,
        "meta_arg_of_pericenter": 45.0313,
        "meta_mean_anomaly": 315.1012,
        "meta_ephemeris_type": 0,
        "meta_classification_type": "U",
        "meta_norad_cat_id": 25397,
        "meta_element_set_no": 999,
        "meta_rev_at_epoch": 42589,
        "meta_bstar": 3.7448e-05,
        "meta_mean_motion_dot": 4e-07,
        "meta_mean_motion_ddot": 0,
        "tle_line1": "1 25397U 98043D   25354.50401866  .00000040  00000+0  37448-4 0  9992",
        "tle_line2": "2 25397  98.9927 337.8955 0001814  45.0313 315.1012 14.24379082425893"
      },
      "geometry": {
        "type": "Point",
        "coordinates": [
          160.31976009617634,
          10.438906545213532
        ]
      }
    },
    {
      "type": "Feature",
      "properties": {
        "norad_id": 25504,
        "name": "SCD 2",
        "group": "resource",
        "lat": 7.938291949809174,
        "lon": 106.90286788794715,
        "alt_km": 726.5375244924498,
        "timestamp": "2025-12-21T05:44:51.232206+00:00",
        "meta_object_name": "SCD 2",
        "meta_object_id": "1998-060A",
        "meta_epoch": "2025-12-20T14:51:05.311008",
        "meta_mean_motion": 14.45427239,
        "meta_eccentricity": 0.0016975,
        "meta_inclination": 24.9946,
        "meta_ra_of_asc_node": 93.3121,
        "meta_arg_of_pericenter": 36.8974,
        "meta_mean_anomaly": 346.0798,
        "meta_ephemeris_type": 0,
        "meta_classification_type": "U",
        "meta_norad_cat_id": 25504,
        "meta_element_set_no": 999,
        "meta_rev_at_epoch": 43446,
        "meta_bstar": 4.6833e-05,
        "meta_mean_motion_dot": 3.49e-06,
        "meta_mean_motion_ddot": 0,
        "tle_line1": "1 25504U 98060A   25354.61881147  .00000349  00000+0  46833-4 0  9997",
        "tle_line2": "2 25504  24.9946  93.3121 0016975  36.8974 346.0798 14.45427239434465"
      },
      "geometry": {
        "type": "Point",
        "coordinates": [
          106.90286788794715,
          7.938291949809174
        ]
      }
    },
    {
      "type": "Feature",
      "properties": {
        "norad_id": 25757,
        "name": "DLR-TUBSAT",
        "group": "resource",
        "lat": 17.285961016708146,
        "lon": 162.7329506782438,
        "alt_km": 708.3631299658473,
        "timestamp": "2025-12-21T05:44:51.232218+00:00",
        "meta_object_name": "DLR-TUBSAT",
        "meta_object_id": "1999-029B",
        "meta_epoch": "2025-12-17T13:22:10.787520",
        "meta_mean_motion": 14.52359578,
        "meta_eccentricity": 0.00141996,
        "meta_inclination": 98.6566,
        "meta_ra_of_asc_node": 336.2196,
        "meta_arg_of_pericenter": 177.8976,
        "meta_mean_anomaly": 182.2281,
        "meta_ephemeris_type": 0,
        "meta_classification_type": "U",
        "meta_norad_cat_id": 25757,
        "meta_element_set_no": 999,
        "meta_rev_at_epoch": 40688,
        "meta_bstar": 3.7650132e-05,
        "meta_mean_motion_dot": 1.05e-06,
        "meta_mean_motion_ddot": 0,
        "tle_line1": "1 25757U 99029B   25351.55706930  .00000105  00000+0  37650-4 0  9996",
        "tle_line2": "2 25757  98.6566 336.2196 0014199 177.8976 182.2281 14.52359578406886"
      },
      "geometry": {
        "type": "Point",
        "coordinates": [
          162.7329506782438,
          17.285961016708146
        ]
      }
    },
    {
      "type": "Feature",
      "properties": {
        "norad_id": 25994,
        "name": "TERRA",
        "group": "resource",
        "lat": 52.86102625803831,
        "lon": -122.72332185883249,
        "alt_km": 683.6518690794119,
        "timestamp": "2025-12-21T05:44:51.232230+00:00",
        "meta_object_name": "TERRA",
        "meta_object_id": "1999-068A",
        "meta_epoch": "2025-12-20T21:44:28.542624",
        "meta_mean_motion": 14.60910196,
        "meta_eccentricity": 0.00035301,
        "meta_inclination": 97.9736,
        "meta_ra_of_asc_node": 46.2903,
        "meta_arg_of_pericenter": 78.3423,
        "meta_mean_anomaly": 94.5294,
        "meta_ephemeris_type": 0,
        "meta_classification_type": "U",
        "meta_norad_cat_id": 25994,
        "meta_element_set_no": 999,
        "meta_rev_at_epoch": 38357,
        "meta_bstar": 7.6124073e-05,
        "meta_mean_motion_dot": 3.28e-06,
        "meta_mean_motion_ddot": 0,
        "tle_line1": "1 25994U 99068A   25354.90588591  .00000328  00000+0  76124-4 0  9991",
        "tle_line2": "2 25994  97.9736  46.2903 0003530  78.3423  94.5294 14.60910196383570"
      },
      "geometry": {
        "type": "Point",
        "coordinates": [
          -122.72332185883249,
          52.86102625803831
        ]
      }
    },
    {
      "type": "Feature",
      "properties": {
        "norad_id": 27004,
        "name": "MAROC-TUBSAT",
        "group": "resource",
        "lat": -45.25503699735931,
        "lon": -26.200565810607312,
        "alt_km": 991.4200699094054,
        "timestamp": "2025-12-21T05:44:51.232241+00:00",
        "meta_object_name": "MAROC-TUBSAT",
        "meta_object_id": "2001-056D",
        "meta_epoch": "2025-12-20T16:40:20.254368",
        "meta_mean_motion": 13.70253273,
        "meta_eccentricity": 0.00191813,
        "meta_inclination": 99.7915,
        "meta_ra_of_asc_node": 163.279,
        "meta_arg_of_pericenter": 239.0349,
        "meta_mean_anomaly": 180.9715,
        "meta_ephemeris_type": 0,
        "meta_classification_type": "U",
        "meta_norad_cat_id": 27004,
        "meta_element_set_no": 999,
        "meta_rev_at_epoch": 20174,
        "meta_bstar": 1.6153003e-05,
        "meta_mean_motion_dot": -3.2e-07,
        "meta_mean_motion_ddot": 0,
        "tle_line1": "1 27004U 01056D   25354.69467887 -.00000032  00000+0  16153-4 0  9994",
        "tle_line2": "2 27004  99.7915 163.2790 0019181 239.0349 180.9715 13.70253273201741"
      },
      "geometry": {
        "type": "Point",
        "coordinates": [
          -26.200565810607312,
          -45.25503699735931
        ]
      }
    },
    {
      "type": "Feature",
      "properties": {
        "norad_id": 27424,
        "name": "AQUA",
        "group": "resource",
        "lat": 29.08155459141928,
        "lon": -48.45972467879832,
        "alt_km": 685.7409511125352,
        "timestamp": "2025-12-21T05:44:51.232253+00:00",
        "meta_object_name": "AQUA",
        "meta_object_id": "2002-022A",
        "meta_epoch": "2025-12-20T21:44:41.124192",
        "meta_mean_motion": 14.61819722,
        "meta_eccentricity": 0.00014178,
        "meta_inclination": 98.4047,
        "meta_ra_of_asc_node": 315.9181,
        "meta_arg_of_pericenter": 110.6839,
        "meta_mean_anomaly": 325.0971,
        "meta_ephemeris_type": 0,
        "meta_classification_type": "U",
        "meta_norad_cat_id": 27424,
        "meta_element_set_no": 999,
        "meta_rev_at_epoch": 25722,
        "meta_bstar": 0.00013305992,
        "meta_mean_motion_dot": 6.15e-06,
        "meta_mean_motion_ddot": 0,
        "tle_line1": "1 27424U 02022A   25354.90603153  .00000615  00000+0  13306-3 0  9998",
        "tle_line2": "2 27424  98.4047 315.9181 0001417 110.6839 325.0971 14.61819722257228"
      },
      "geometry": {
        "type": "Point",
        "coordinates": [
          -48.45972467879832,
          29.08155459141928
        ]
      }
    }
  ]
}